start=new Date('2022-11-09T00:00:00.000Z').valueOf();
sats=[{"EPHEMERIS_TYPE":"0","BSTAR":"-0.00065766000000","PERIOD":"91.525","MEAN_ELEMENT_THEORY":"SGP4","SEMIMAJOR_AXIS":"6727.516","TIME_SYSTEM":"UTC","MEAN_MOTION_DDOT":"0.0000000000000","MEAN_MOTION":"15.73333113","MEAN_MOTION_DOT":"-0.00092470","RA_OF_ASC_NODE":"7.0045","LAUNCH_DATE":"2022-09-19","PERIAPSIS":"347.169","NORAD_CAT_ID":"53857","REF_FRAME":"TEME","CENTER_NAME":"EARTH","ECCENTRICITY":"0.00032870","DECAY_DATE":null,"COUNTRY_CODE":"US","MEAN_ANOMALY":"255.5647","ARG_OF_PERICENTER":"8.9274","OBJECT_ID":"2022-114AR","APOAPSIS":"351.592","ELEMENT_SET_NO":"999","OBJECT_TYPE":"PAYLOAD","RCS_SIZE":"LARGE","OBJECT_NAME":"STARLINK-4809","CLASSIFICATION_TYPE":"U","EPOCH":"2022-11-08T22:00:00.999936","SITE":"AFETR","FILE":"3649076","TLE_LINE1":"1 53857U 22114AR  22312.91667824 -.00092470  00000-0 -65766-3 0  9998","REV_AT_EPOCH":"130","INCLINATION":"53.2154","GP_ID":"217204576","TLE_LINE2":"2 53857  53.2154   7.0045 0003287   8.9274 255.5647 15.73333113  1304"},{"EPHEMERIS_TYPE":"0","BSTAR":"-0.00101520000000","PERIOD":"91.524","MEAN_ELEMENT_THEORY":"SGP4","SEMIMAJOR_AXIS":"6727.448","TIME_SYSTEM":"UTC","MEAN_MOTION_DDOT":"0.0000000000000","MEAN_MOTION":"15.73356696","MEAN_MOTION_DOT":"-0.00141729","RA_OF_ASC_NODE":"7.0010","LAUNCH_DATE":"2022-09-19","PERIAPSIS":"347.060","NORAD_CAT_ID":"53858","REF_FRAME":"TEME","CENTER_NAME":"EARTH","DECAY_DATE":null,"ECCENTRICITY":"0.00033490","COUNTRY_CODE":"US","MEAN_ANOMALY":"262.0824","ARG_OF_PERICENTER":"4.8087","OBJECT_ID":"2022-114AS","APOAPSIS":"351.566","ELEMENT_SET_NO":"999","OBJECT_TYPE":"PAYLOAD","RCS_SIZE":"LARGE","CLASSIFICATION_TYPE":"U","OBJECT_NAME":"STARLINK-4798","EPOCH":"2022-11-08T22:00:00.999936","SITE":"AFETR","FILE":"3649076","REV_AT_EPOCH":"130","TLE_LINE1":"1 53858U 22114AS  22312.91667824 -.00141729  00000-0 -10152-2 0  9999","INCLINATION":"53.2144","GP_ID":"217205173","TLE_LINE2":"2 53858  53.2144   7.0010 0003349   4.8087 262.0824 15.73356696  1303"},{"MEAN_MOTION_DOT":"-0.00152959","MEAN_MOTION":"15.73348656","LAUNCH_DATE":"2022-09-19","RA_OF_ASC_NODE":"7.0021","NORAD_CAT_ID":"53859","PERIAPSIS":"347.040","PERIOD":"91.525","EPHEMERIS_TYPE":"0","BSTAR":"-0.00109780000000","MEAN_ELEMENT_THEORY":"SGP4","TIME_SYSTEM":"UTC","SEMIMAJOR_AXIS":"6727.471","MEAN_MOTION_DDOT":"0.0000000000000","MEAN_ANOMALY":"258.3587","ECCENTRICITY":"0.00034140","DECAY_DATE":null,"COUNTRY_CODE":"US","REF_FRAME":"TEME","CENTER_NAME":"EARTH","RCS_SIZE":"LARGE","SITE":"AFETR","OBJECT_NAME":"STARLINK-4790","CLASSIFICATION_TYPE":"U","EPOCH":"2022-11-08T22:00:00.999936","ARG_OF_PERICENTER":"7.3553","APOAPSIS":"351.633","OBJECT_ID":"2022-114AT","OBJECT_TYPE":"PAYLOAD","ELEMENT_SET_NO":"999","TLE_LINE2":"2 53859  53.2156   7.0021 0003414   7.3553 258.3587 15.73348656  1309","TLE_LINE1":"1 53859U 22114AT  22312.91667824 -.00152959  00000-0 -10978-2 0  9993","REV_AT_EPOCH":"130","INCLINATION":"53.2156","FILE":"3649076","GP_ID":"217203994"},{"OBJECT_ID":"2022-114AU","APOAPSIS":"351.530","ARG_OF_PERICENTER":"8.6120","ELEMENT_SET_NO":"999","OBJECT_TYPE":"PAYLOAD","RCS_SIZE":"LARGE","OBJECT_NAME":"STARLINK-4799","CLASSIFICATION_TYPE":"U","EPOCH":"2022-11-08T22:00:00.999936","SITE":"AFETR","GP_ID":"217205019","FILE":"3649076","TLE_LINE1":"1 53860U 22114AU  22312.91667824 -.00157904  00000-0 -11332-2 0  9995","INCLINATION":"53.2154","REV_AT_EPOCH":"130","TLE_LINE2":"2 53860  53.2154   6.9972 0003340   8.6120 260.0675 15.73367532  1306","MEAN_ELEMENT_THEORY":"SGP4","EPHEMERIS_TYPE":"0","BSTAR":"-0.00113320000000","PERIOD":"91.523","MEAN_MOTION_DDOT":"0.0000000000000","TIME_SYSTEM":"UTC","SEMIMAJOR_AXIS":"6727.418","MEAN_MOTION":"15.73367532","MEAN_MOTION_DOT":"-0.00157904","PERIAPSIS":"347.036","NORAD_CAT_ID":"53860","RA_OF_ASC_NODE":"6.9972","LAUNCH_DATE":"2022-09-19","CENTER_NAME":"EARTH","REF_FRAME":"TEME","DECAY_DATE":null,"COUNTRY_CODE":"US","ECCENTRICITY":"0.00033400","MEAN_ANOMALY":"260.0675"},{"MEAN_MOTION_DDOT":"0.0000000000000","SEMIMAJOR_AXIS":"6727.500","TIME_SYSTEM":"UTC","MEAN_ELEMENT_THEORY":"SGP4","PERIOD":"91.525","BSTAR":"-0.00069737000000","EPHEMERIS_TYPE":"0","NORAD_CAT_ID":"53861","PERIAPSIS":"347.086","LAUNCH_DATE":"2022-09-19","RA_OF_ASC_NODE":"6.9981","MEAN_MOTION_DOT":"-0.00097979","MEAN_MOTION":"15.73338736","CENTER_NAME":"EARTH","REF_FRAME":"TEME","MEAN_ANOMALY":"256.7669","COUNTRY_CODE":"US","DECAY_DATE":null,"ECCENTRICITY":"0.00033870","OBJECT_TYPE":"PAYLOAD","ELEMENT_SET_NO":"999","APOAPSIS":"351.643","OBJECT_ID":"2022-114AV","ARG_OF_PERICENTER":"10.7191","SITE":"AFETR","CLASSIFICATION_TYPE":"U","OBJECT_NAME":"STARLINK-4781","EPOCH":"2022-11-08T22:00:00.999936","RCS_SIZE":"LARGE","GP_ID":"217204165","REV_AT_EPOCH":"130","TLE_LINE1":"1 53861U 22114AV  22312.91667824 -.00097979  00000-0 -69737-3 0  9994","INCLINATION":"53.2155","FILE":"3649076","TLE_LINE2":"2 53861  53.2155   6.9981 0003387  10.7191 256.7669 15.73338736  1300"},{"LAUNCH_DATE":"2022-09-19","RA_OF_ASC_NODE":"6.9953","NORAD_CAT_ID":"53862","PERIAPSIS":"347.285","MEAN_MOTION_DOT":"-0.00076922","MEAN_MOTION":"15.73217293","TIME_SYSTEM":"UTC","SEMIMAJOR_AXIS":"6727.846","MEAN_MOTION_DDOT":"0.0000000000000","PERIOD":"91.532","BSTAR":"-0.00054801000000","EPHEMERIS_TYPE":"0","MEAN_ELEMENT_THEORY":"SGP4","MEAN_ANOMALY":"263.1766","ECCENTRICITY":"0.00036060","DECAY_DATE":null,"COUNTRY_CODE":"US","REF_FRAME":"TEME","CENTER_NAME":"EARTH","SITE":"AFETR","OBJECT_NAME":"STARLINK-4792","EPOCH":"2022-11-08T22:00:00.999936","CLASSIFICATION_TYPE":"U","RCS_SIZE":"LARGE","ELEMENT_SET_NO":"999","OBJECT_TYPE":"PAYLOAD","ARG_OF_PERICENTER":"6.6487","APOAPSIS":"352.137","OBJECT_ID":"2022-114AW","TLE_LINE2":"2 53862  53.2158   6.9953 0003606   6.6487 263.1766 15.73217293  1303","REV_AT_EPOCH":"130","TLE_LINE1":"1 53862U 22114AW  22312.91667824 -.00076922  00000-0 -54801-3 0  9996","INCLINATION":"53.2158","FILE":"3649076","GP_ID":"217204910"},{"PERIOD":"91.526","BSTAR":"-0.00063176000000","EPHEMERIS_TYPE":"0","MEAN_ELEMENT_THEORY":"SGP4","SEMIMAJOR_AXIS":"6727.523","TIME_SYSTEM":"UTC","MEAN_MOTION_DDOT":"0.0000000000000","MEAN_MOTION_DOT":"-0.00088895","MEAN_MOTION":"15.73330707","LAUNCH_DATE":"2022-09-19","RA_OF_ASC_NODE":"6.9966","NORAD_CAT_ID":"53863","PERIAPSIS":"346.793","REF_FRAME":"TEME","CENTER_NAME":"EARTH","MEAN_ANOMALY":"261.7005","COUNTRY_CODE":"US","DECAY_DATE":null,"ECCENTRICITY":"0.00038570","ARG_OF_PERICENTER":"6.4079","APOAPSIS":"351.982","OBJECT_ID":"2022-114AX","ELEMENT_SET_NO":"999","OBJECT_TYPE":"PAYLOAD","RCS_SIZE":"LARGE","SITE":"AFETR","OBJECT_NAME":"STARLINK-4788","EPOCH":"2022-11-08T22:00:00.999936","CLASSIFICATION_TYPE":"U","TLE_LINE1":"1 53863U 22114AX  22312.91667824 -.00088895  00000-0 -63176-3 0  9994","REV_AT_EPOCH":"130","INCLINATION":"53.2154","FILE":"3649076","GP_ID":"217204405","TLE_LINE2":"2 53863  53.2154   6.9966 0003857   6.4079 261.7005 15.73330707  1303"},{"TLE_LINE2":"2 53864  53.2154   6.9924 0003695   4.0818 266.9788 15.73357432  1302","FILE":"3649076","TLE_LINE1":"1 53864U 22114AY  22312.91667824 -.00143798  00000-0 -10302-2 0  9991","INCLINATION":"53.2154","REV_AT_EPOCH":"130","GP_ID":"217204756","OBJECT_NAME":"STARLINK-4779","EPOCH":"2022-11-08T22:00:00.999936","CLASSIFICATION_TYPE":"U","SITE":"AFETR","RCS_SIZE":"LARGE","ELEMENT_SET_NO":"999","OBJECT_TYPE":"PAYLOAD","ARG_OF_PERICENTER":"4.0818","OBJECT_ID":"2022-114AY","APOAPSIS":"351.797","DECAY_DATE":null,"ECCENTRICITY":"0.00036950","COUNTRY_CODE":"US","MEAN_ANOMALY":"266.9788","REF_FRAME":"TEME","CENTER_NAME":"EARTH","RA_OF_ASC_NODE":"6.9924","LAUNCH_DATE":"2022-09-19","PERIAPSIS":"346.826","NORAD_CAT_ID":"53864","MEAN_MOTION":"15.73357432","MEAN_MOTION_DOT":"-0.00143798","TIME_SYSTEM":"UTC","SEMIMAJOR_AXIS":"6727.446","MEAN_MOTION_DDOT":"0.0000000000000","BSTAR":"-0.00103020000000","EPHEMERIS_TYPE":"0","PERIOD":"91.524","MEAN_ELEMENT_THEORY":"SGP4"},{"EPOCH":"2022-11-08T22:00:00.999936","OBJECT_NAME":"STARLINK-4785","CLASSIFICATION_TYPE":"U","SITE":"AFETR","RCS_SIZE":"LARGE","ELEMENT_SET_NO":"999","OBJECT_TYPE":"PAYLOAD","OBJECT_ID":"2022-114AZ","APOAPSIS":"351.935","ARG_OF_PERICENTER":"7.0254","TLE_LINE2":"2 53865  53.2157   6.9938 0003618   7.0254 263.4215 15.73290846  1305","GP_ID":"217204577","FILE":"3649076","INCLINATION":"53.2157","TLE_LINE1":"1 53865U 22114AZ  22312.91667824 -.00137269  00000-0 -98531-3 0  9999","REV_AT_EPOCH":"130","PERIAPSIS":"347.067","NORAD_CAT_ID":"53865","RA_OF_ASC_NODE":"6.9938","LAUNCH_DATE":"2022-09-19","MEAN_MOTION":"15.73290846","MEAN_MOTION_DOT":"-0.00137269","MEAN_MOTION_DDOT":"0.0000000000000","SEMIMAJOR_AXIS":"6727.636","TIME_SYSTEM":"UTC","MEAN_ELEMENT_THEORY":"SGP4","BSTAR":"-0.00098531000000","EPHEMERIS_TYPE":"0","PERIOD":"91.528","ECCENTRICITY":"0.00036180","DECAY_DATE":null,"COUNTRY_CODE":"US","MEAN_ANOMALY":"263.4215","CENTER_NAME":"EARTH","REF_FRAME":"TEME"},{"CLASSIFICATION_TYPE":"U","OBJECT_NAME":"STARLINK-4762","EPOCH":"2022-11-08T22:00:00.999936","SITE":"AFETR","RCS_SIZE":"LARGE","ELEMENT_SET_NO":"999","OBJECT_TYPE":"PAYLOAD","OBJECT_ID":"2022-114BA","APOAPSIS":"351.764","ARG_OF_PERICENTER":"7.0594","TLE_LINE2":"2 53866  53.2152   6.9892 0003639   7.0594 265.7676 15.73355880  1306","GP_ID":"217205174","FILE":"3649076","TLE_LINE1":"1 53866U 22114BA  22312.91667824 -.00131086  00000-0 -93741-3 0  9999","REV_AT_EPOCH":"130","INCLINATION":"53.2152","PERIAPSIS":"346.868","NORAD_CAT_ID":"53866","RA_OF_ASC_NODE":"6.9892","LAUNCH_DATE":"2022-09-19","MEAN_MOTION":"15.73355880","MEAN_MOTION_DOT":"-0.00131086","MEAN_MOTION_DDOT":"0.0000000000000","TIME_SYSTEM":"UTC","SEMIMAJOR_AXIS":"6727.451","MEAN_ELEMENT_THEORY":"SGP4","EPHEMERIS_TYPE":"0","BSTAR":"-0.00093741000000","PERIOD":"91.524","DECAY_DATE":null,"ECCENTRICITY":"0.00036390","COUNTRY_CODE":"US","MEAN_ANOMALY":"265.7676","CENTER_NAME":"EARTH","REF_FRAME":"TEME"}];
